[{"OBJECT_NAME":"ONEWEB-0360","OBJECT_ID":"2021-090H","EPOCH":"2026-03-09T16:46:43.013280","MEAN_MOTION":13.20769973,"ECCENTRICITY":0.00017396,"INCLINATION":87.917,"RA_OF_ASC_NODE":294.3055,"ARG_OF_PERICENTER":80.819,"MEAN_ANOMALY":279.314,"EPHEMERIS_TYPE":0,"CLASSIFICATION_TYPE":"U","NORAD_CAT_ID":49286,"ELEMENT_SET_NO":999,"REV_AT_EPOCH":21671,"BSTAR":0.00021307037,"MEAN_MOTION_DOT":1.0e-6,"MEAN_MOTION_DDOT":0},{"OBJECT_NAME":"METEOR 3-1","OBJECT_ID":"1985-100A","EPOCH":"2026-03-09T15:52:13.980288","MEAN_MOTION":13.1731561,"ECCENTRICITY":0.0018691,"INCLINATION":82.5446,"RA_OF_ASC_NODE":106.3991,"ARG_OF_PERICENTER":244.557,"MEAN_ANOMALY":235.8257,"EPHEMERIS_TYPE":0,"CLASSIFICATION_TYPE":"U","NORAD_CAT_ID":16191,"ELEMENT_SET_NO":999,"REV_AT_EPOCH":94123,"BSTAR":0.00029887,"MEAN_MOTION_DOT":1.28e-6,"MEAN_MOTION_DDOT":0}]
